[{"OBJECT_NAME":"TEVEL2-3","OBJECT_ID":"2025-052J","EPOCH":"2026-03-09T15:29:22.754400","MEAN_MOTION":15.30377031,"ECCENTRICITY":0.0004761,"INCLINATION":97.3994,"RA_OF_ASC_NODE":324.7775,"ARG_OF_PERICENTER":105.7353,"MEAN_ANOMALY":254.4413,"EPHEMERIS_TYPE":0,"CLASSIFICATION_TYPE":"U","NORAD_CAT_ID":63218,"ELEMENT_SET_NO":999,"REV_AT_EPOCH":5485,"BSTAR":0.00069446,"MEAN_MOTION_DOT":0.00020365,"MEAN_MOTION_DDOT":0},{"OBJECT_NAME":"STARLINK-34835","OBJECT_ID":"2025-189P","EPOCH":"2026-03-09T16:48:14.618016","MEAN_MOTION":15.30197171,"ECCENTRICITY":0.00012824,"INCLINATION":53.1609,"RA_OF_ASC_NODE":207.0333,"ARG_OF_PERICENTER":75.1205,"MEAN_ANOMALY":284.9938,"EPHEMERIS_TYPE":0,"CLASSIFICATION_TYPE":"U","NORAD_CAT_ID":65336,"ELEMENT_SET_NO":999,"REV_AT_EPOCH":3110,"BSTAR":0.0010560392,"MEAN_MOTION_DOT":0.00031046,"MEAN_MOTION_DDOT":0}]
